STARLINK-4621           
1 53676U 22105AE  26193.56827017  .00000293  00000+0  24194-4 0  9991
2 53676  97.2834  71.2607 0001693  93.1583 266.9839 15.05656300212024
SHERPA-LTC2             
1 53754U 22107BG  26193.21016797  .00002144  00000+0  12194-3 0  9990
2 53754  53.2371 114.3885 0392794 296.3432  59.7708 14.69903594206228
CENTISPACE-1 S3         
1 53757U 22108A   26193.58375910  .00000123  00000+0  62860-4 0  9990
2 53757  53.5340 310.2411 0010689  58.6407 301.5613 14.61281486205248
CENTISPACE-1 S4         
1 53758U 22108B   26193.55613836  .00000219  00000+0  81157-4 0  9996
2 53758  53.5314 307.7524 0009949  47.9918 312.1903 14.61970053205279
BLUEWALKER-3            
1 53807U 22111AL  26193.51605323  .00003610  00000+0  10355-3 0  9992
2 53807  53.2292 275.0321 0004566 254.1605 105.8897 15.38588610214103
YUNHAI-1 03             
1 53877U 22115A   26193.60810029  .00000223  00000+0  97934-4 0  9990
2 53877  98.5542 191.4335 0004332 347.7482  12.3596 14.32735152199152
CENTISPACE-1 S5         
1 54020U 22126A   26193.56779278  .00000384  00000+0  11094-3 0  9998
2 54020  54.9988 111.3915 0014475 119.4782 240.7659 14.63053671200753
CENTISPACE-1 S6         
1 54021U 22126B   26193.57368496  .00000268  00000+0  89728-4 0  9997
2 54021  54.9991 113.3522 0016280 120.5470 239.7133 14.62314193200716
OTB-3-GAZELLE           
1 54023U 22127A   26193.51338753  .00000070  00000+0  34059-4 0  9995
2 54023  98.3959 184.8336 0014374 110.3250 249.9486 14.42683393198017
ASO-S                   
1 54029U 22129A   26193.61186044  .00000112  00000+0  38580-4 0  9998
2 54029  98.2754 198.3290 0014759  19.9606 340.2164 14.52074073199110
HJ-2E                   
1 54035U 22132A   26193.58848547  .00004429  00000+0  19242-3 0  9996
2 54035  97.3799 197.5135 0018049 280.6048  79.3156 15.22672727208286
COSMOS 2561             
1 54109U 22137A   26193.43628545  .00009073  00000+0  15037-3 0  9999
2 54109  96.9179 251.5003 0008177 293.3978  66.6415 15.52327033210262
GONETS-M 23             
1 54150U 22139A   26193.61930984  .00000015  00000+0  39712-4 0  9994
2 54150  82.5093 332.4888 0022032 163.9742 196.2039 12.42891863168808
GONETS-M 24             
1 54151U 22139B   26193.59237314  .00000005  00000+0 -32324-4 0  9991
2 54151  82.5010 331.5480 0017088 173.6275 186.5025 12.42892427168804
GONETS-M 25             
1 54152U 22139C   26193.57880197  .00000006  00000+0 -31874-4 0  9993
2 54152  82.5075 332.2564 0021029 172.6771 187.4620 12.42890817168809
SKIF-D                  
1 54153U 22139D   26193.23937105  .00000005  00000+0  00000+0 0  9999
2 54153  89.9490  96.6610 0007425 188.5228 171.5318  5.00429908 65362
MATS                    
1 54227U 22147A   26193.57265910  .00001239  00000+0  90392-4 0  9993
2 54227  97.6828 195.0617 0014120 111.0138 249.2601 15.05493483201586
EOS-6 (OCEANSAT-3)      
1 54361U 22158A   26193.60959456  .00000114  00000+0  43291-4 0  9990
2 54361  98.3549 291.4674 0000288 129.5822 230.5396 14.46983534191511
DONGPO 09               
1 54685U 22167D   26193.61133529  .00007421  00000+0  20813-3 0  9997
2 54685  97.6909   5.7662 0002962  58.1884 301.9648 15.36896240199351
DONGPO 08               
1 54686U 22167E   26193.63682002  .00006468  00000+0  19803-3 0  9992
2 54686  97.6874   2.8493 0009332  81.5675 278.6624 15.34151254199226
2022-167F               
1 54687U 22167F   26193.58670571  .00759163  34209-3  64389-3 0  9993
2 54687  97.5963  24.9883 0006667 244.5757 115.4838 16.13626165200890
DONGPO 10               
1 54689U 22167H   26193.62998632  .00006710  00000+0  20030-3 0  9997
2 54689  97.6956   4.8540 0005200  36.4339 323.7257 15.34967251199261
JILIN-1 GAOFEN 03D48    
1 54695U 22167P   26193.61480032  .00006910  00000+0  20106-3 0  9999
2 54695  97.6890   4.2252 0006684  38.6203 321.5517 15.35757482199292
STAR VIBE               
1 55009U 23001A   26193.59255293  .00009378  00000+0  21245-3 0  9999
2 55009  97.3164 258.1686 0005757  39.5962 320.5705 15.43306797196143
BRO-8                   
1 55011U 23001C   26193.61586269  .00022452  00000+0  39265-3 0  9994
2 55011  97.3195 259.1918 0005122  49.1446 311.0249 15.50638456196145
CONNECTA T1.2           
1 55012U 23001D   26192.74081829  .00027637  00000+0  44879-3 0  9997
2 55012  97.3246 263.8971 0004228  20.9424 339.2002 15.52686859196357
BIRKELAND               
1 55015U 23001G   26193.61270421  .00005619  00000+0  14053-3 0  9992
2 55015  97.3341 261.6529 0006698  29.8149 330.3478 15.40509850196267
ION SCV-008             
1 55051U 23001AU  26193.30762605  .00003557  00000+0  12940-3 0  9990
2 55051  97.5719 290.0510 0013217 284.6498  75.3275 15.28859037195178
ION SCV-007             
1 55060U 23001BD  26193.11893449  .00000214  00000+0  37119-4 0  9993
2 55060  97.8994 255.6380 0010961 253.3061 106.6947 14.77574604189938
HUYGENS                 
1 55093U 23001CN  26193.61278873  .00005722  00000+0  14299-3 0  9994
2 55093  97.3244 260.8496 0008699   2.7070 357.4222 15.40509193196284
