OBJECT_NAME,OBJECT_ID,EPOCH,MEAN_MOTION,ECCENTRICITY,INCLINATION,RA_OF_ASC_NODE,ARG_OF_PERICENTER,MEAN_ANOMALY,EPHEMERIS_TYPE,CLASSIFICATION_TYPE,NORAD_CAT_ID,ELEMENT_SET_NO,REV_AT_EPOCH,BSTAR,MEAN_MOTION_DOT,MEAN_MOTION_DDOT
STARLINK-4621,2022-105AE,2026-07-12T13:38:18.542688,15.05656300,.00016932,97.2834,71.2607,93.1583,266.9839,0,U,53676,999,21202,.24194225E-4,.293E-5,0
SHERPA-LTC2,2022-107BG,2026-07-12T05:02:38.512608,14.69903594,.0392794,53.2371,114.3885,296.3432,59.7708,0,U,53754,999,20622,.12194E-3,.2144E-4,0
CENTISPACE-1 S3,2022-108A,2026-07-12T14:00:36.786240,14.61281486,.00106896,53.5340,310.2411,58.6407,301.5613,0,U,53757,999,20524,.62860022E-4,.123E-5,0
CENTISPACE-1 S4,2022-108B,2026-07-12T13:20:50.354304,14.61970053,.00099499,53.5314,307.7524,47.9918,312.1903,0,U,53758,999,20527,.81156747E-4,.219E-5,0
BLUEWALKER-3,2022-111AL,2026-07-12T12:23:06.999072,15.38588610,.00045668,53.2292,275.0321,254.1605,105.8897,0,U,53807,999,21410,.10354744E-3,.361E-4,0
YUNHAI-1 03,2022-115A,2026-07-12T14:35:39.865056,14.32735152,.00043329,98.5542,191.4335,347.7482,12.3596,0,U,53877,999,19915,.97933728E-4,.223E-5,0
CENTISPACE-1 S5,2022-126A,2026-07-12T13:37:37.296192,14.63053671,.00144759,54.9988,111.3915,119.4782,240.7659,0,U,54020,999,20075,.11094376E-3,.384E-5,0
CENTISPACE-1 S6,2022-126B,2026-07-12T13:46:06.380544,14.62314193,.00162805,54.9991,113.3522,120.5470,239.7133,0,U,54021,999,20071,.89728032E-4,.268E-5,0
OTB-3-GAZELLE,2022-127A,2026-07-12T12:19:16.682592,14.42683393,.0014374,98.3959,184.8336,110.3250,249.9486,0,U,54023,999,19801,.34058739E-4,.7E-6,0
ASO-S,2022-129A,2026-07-12T14:41:04.742016,14.52074073,.00147592,98.2754,198.3290,19.9606,340.2164,0,U,54029,999,19911,.38579577E-4,.112E-5,0
HJ-2E,2022-132A,2026-07-12T14:07:25.144608,15.22672727,.00180492,97.3799,197.5135,280.6048,79.3156,0,U,54035,999,20828,.19242399E-3,.4429E-4,0
COSMOS 2561,2022-137A,2026-07-12T10:28:15.062880,15.52327033,.0008177,96.9179,251.5003,293.3978,66.6415,0,U,54109,999,21026,.15037E-3,.9073E-4,0
GONETS-M 23,2022-139A,2026-07-12T14:51:48.370176,12.42891863,.00220328,82.5093,332.4888,163.9742,196.2039,0,U,54150,999,16880,.39711723E-4,.15E-6,0
GONETS-M 24,2022-139B,2026-07-12T14:13:01.039296,12.42892427,.00170889,82.5010,331.5480,173.6275,186.5025,0,U,54151,999,16880,-.32323572E-4,.5E-7,0
GONETS-M 25,2022-139C,2026-07-12T13:53:28.490208,12.42890817,.00210291,82.5075,332.2564,172.6771,187.4620,0,U,54152,999,16880,-.31874031E-4,.6E-7,0
SKIF-D,2022-139D,2026-07-12T05:44:41.658720,5.00429908,.00074253,89.9490,96.6610,188.5228,171.5318,0,U,54153,999,6536,0,.5E-7,0
MATS,2022-147A,2026-07-12T13:44:37.746240,15.05493483,.00141205,97.6828,195.0617,111.0138,249.2601,0,U,54227,999,20158,.90392129E-4,.1239E-4,0
EOS-6 (OCEANSAT-3),2022-158A,2026-07-12T14:37:48.969984,14.46983534,.00002887,98.3549,291.4674,129.5822,230.5396,0,U,54361,999,19151,.43290699E-4,.114E-5,0
DONGPO 09,2022-167D,2026-07-12T14:40:19.369056,15.36896240,.0002962,97.6909,5.7662,58.1884,301.9648,0,U,54685,999,19935,.208134E-3,.7421E-4,0
DONGPO 08,2022-167E,2026-07-12T15:17:01.249728,15.34151254,.00093322,97.6874,2.8493,81.5675,278.6624,0,U,54686,999,19922,.19803224E-3,.6468E-4,0
2022-167F,2022-167F,2026-07-12T14:04:51.373344,16.13626165,.00066672,97.5963,24.9883,244.5757,115.4838,0,U,54687,999,20089,.64388959E-3,.759163E-2,.34208655E-3
DONGPO 10,2022-167H,2026-07-12T15:07:10.818048,15.34967251,.00052002,97.6956,4.8540,36.4339,323.7257,0,U,54689,999,19926,.20030082E-3,.671E-4,0
JILIN-1 GAOFEN 03D48,2022-167P,2026-07-12T14:45:18.747648,15.35757482,.00066842,97.6890,4.2252,38.6203,321.5517,0,U,54695,999,19929,.20105542E-3,.691E-4,0
STAR VIBE,2023-001A,2026-07-12T14:13:16.573152,15.43306797,.00057577,97.3164,258.1686,39.5962,320.5705,0,U,55009,999,19614,.21244591E-3,.9378E-4,0
BRO-8,2023-001C,2026-07-12T14:46:50.536416,15.50638456,.00051225,97.3195,259.1918,49.1446,311.0249,0,U,55011,999,19614,.39264628E-3,.22452E-3,0
CONNECTA T1.2,2023-001D,2026-07-11T17:46:46.700256,15.52686859,.00042281,97.3246,263.8971,20.9424,339.2002,0,U,55012,999,19635,.44878639E-3,.27637E-3,0
BIRKELAND,2023-001G,2026-07-12T14:42:17.643744,15.40509850,.00066984,97.3341,261.6529,29.8149,330.3478,0,U,55015,999,19626,.14053117E-3,.5619E-4,0
ION SCV-008,2023-001AU,2026-07-12T07:22:58.890720,15.28859037,.00132174,97.5719,290.0510,284.6498,75.3275,0,U,55051,999,19517,.12939899E-3,.3557E-4,0
ION SCV-007,2023-001BD,2026-07-12T02:51:15.939936,14.77574604,.00109616,97.8994,255.6380,253.3061,106.6947,0,U,55060,999,18993,.37118638E-4,.214E-5,0
HUYGENS,2023-001CN,2026-07-12T14:42:24.946272,15.40509193,.00086999,97.3244,260.8496,2.7070,357.4222,0,U,55093,999,19628,.14299214E-3,.5722E-4,0
